OBJECT_NAME,OBJECT_ID,EPOCH,MEAN_MOTION,ECCENTRICITY,INCLINATION,RA_OF_ASC_NODE,ARG_OF_PERICENTER,MEAN_ANOMALY,EPHEMERIS_TYPE,CLASSIFICATION_TYPE,NORAD_CAT_ID,ELEMENT_SET_NO,REV_AT_EPOCH,BSTAR,MEAN_MOTION_DOT,MEAN_MOTION_DDOT
SAUDISAT 1C (SO-50),2002-058C,2026-06-18T23:25:23.606688,14.83050375,.007518,64.5512,123.4505,262.1401,97.1166,0,U,27607,999,26472,.10865759E-3,.773E-5,0
SAUDISAT 2,2004-025F,2026-06-18T22:51:14.954688,14.56684729,.00235383,98.5507,169.9798,292.5681,67.3025,0,U,28371,999,16600,.50287422E-4,.175E-5,0
SAUDISAT 3,2007-012B,2026-06-18T18:06:49.212864,14.71426372,.00137308,98.1456,120.1564,218.5452,141.4775,0,U,31118,999,2797,.39497632E-4,.194E-5,0
PISAT,2016-059B,2026-06-18T21:57:37.581120,14.68985768,.00285357,97.8178,170.2936,197.1252,162.8994,0,U,41784,999,51999,.11658211E-3,.64E-5,0
FLYING LAPTOP,2017-042G,2026-06-18T23:38:47.917248,15.01155403,.00196162,97.4695,325.4483,115.7715,244.5537,0,U,42831,999,48672,.21529098E-3,.2712E-4,0
SALSAT,2020-068K,2026-06-18T23:26:50.723808,15.29820569,.00079502,97.8853,173.1506,300.6759,59.3696,0,U,46495,999,31563,.21049844E-3,.5999E-4,0
